STARLINK-35585          
1 66170U 25240AA  25328.50002315 -.01981356  00000+0 -60256-1 0  9993
2 66170  53.1593 191.7309 0001398  78.3807 101.4886 15.37153887  5979
STARLINK-35606          
1 66171U 25240AB  25328.06990940  .00067045  00000+0  12022-2 0  9991
2 66171  53.1586 193.6673 0001199  81.0710 279.0435 15.49332241  5811
STARLINK-35627          
1 66172U 25240AC  25327.23233573  .00061729  00000+0  11081-2 0  9999
2 66172  53.1588 197.6857 0000878 113.7702 246.3399 15.49338004  5683
STARLINK-35634          
1 66173U 25240AD  25328.19858216  .00063759  00000+0  11440-2 0  9997
2 66173  53.1588 193.0458 0001255  88.6370 271.4783 15.49337496  5839
HTV-X1                  
1 66174U 25241A   25327.18992837  .00013668  00000+0  25570-3 0  9999
2 66174  51.6318 239.2442 0003903 158.2569 201.8586 15.49010020  1459
GAOFEN-14 02            
1 66175U 25242A   25318.46556247  .00014152  00000+0  52318-3 0  9992
2 66175  97.4386  30.6022 0011017 193.9078 166.1859 15.27766001  2951
CZ-3B R/B               
1 66176U 25242B   25309.65934494  .00029904  00000+0  58815-3 0  9997
2 66176  97.4571  21.8726 0103778   5.1082 355.1197 15.41457457  1622
STARLINK-35352          
1 66177U 25243A   25328.50002315 -.02009020  00000+0 -49604-1 0  9997
2 66177  53.1593  14.0243 0001311  59.8608  34.0690 15.43452059  5657
STARLINK-35363          
1 66178U 25243B   25328.50002315 -.02014049  00000+0 -53261-1 0  9999
2 66178  53.1593  14.0535 0001289  61.1947  17.8615 15.41433705  5716
STARLINK-35346          
1 66179U 25243C   25328.50002315 -.02030539  00000+0 -55715-1 0  9998
2 66179  53.1591  14.0726 0001077  63.1659   6.7647 15.40364284  5653
STARLINK-35335          
1 66180U 25243D   25328.50002315 -.02049951  00000+0 -58167-1 0  9992
2 66180  53.1597  14.0922 0001120  64.2583 356.3711 15.39391149  5650
STARLINK-35342          
1 66181U 25243E   25328.50002315 -.02048982  00000+0 -59339-1 0  9998
2 66181  53.1593  14.1056 0001158  65.8969 347.7711 15.38771708  5658
